COSMOS 2361             
1 25590U 98076A   26074.31183311  .00000082  00000+0  72533-4 0  9994
2 25590  82.9300 275.6302 0031700  10.7472 162.0673 13.73228240363810
COSMOS 2378             
1 26818U 01023A   26074.15090153  .00000079  00000+0  68546-4 0  9992
2 26818  82.9243 291.2178 0032023 311.3941 165.8770 13.74151677241921
COSMOS 2389             
1 27436U 02026A   26074.19786787  .00000061  00000+0  47567-4 0  9993
2 27436  82.9480 238.5361 0046821 160.4544  12.6918 13.75164992194196
COSMOS 2398             
1 27818U 03023A   26074.29854117  .00000057  00000+0  46149-4 0  9999
2 27818  82.9505 204.4862 0030780 213.6758 208.8092 13.72395997140866
COSMOS 2407             
1 28380U 04028A   26074.28825271  .00000070  00000+0  55533-4 0  9990
2 28380  82.9623 144.3818 0040002 153.2805 281.2256 13.76325747 86962
COSMOS 2414             
1 28521U 05002A   26074.24127957  .00000110  00000+0  79055-4 0  9992
2 28521  82.9470 114.7181 0038901 236.0527 123.6937 13.87916523 70787
COSMOS 2429             
1 32052U 07038A   26074.27135890  .00000083  00000+0  70248-4 0  9999
2 32052  82.9763 275.1051 0039301 136.3179 224.1099 13.75158868928745
COSMOS 2454             
1 35635U 09039A   26074.31463161  .00000089  00000+0  59503-4 0  9999
2 35635  82.9520  98.4651 0019583 163.5065 207.0216 13.89941940844366
COSMOS 2463             
1 36519U 10017A   26074.17394850  .00000065  00000+0  55250-4 0  9990
2 36519  82.9622 318.8030 0036936  32.7260  79.0097 13.71658529795049
