[{"OBJECT_NAME":"COSMOS 2361","OBJECT_ID":"1998-076A","EPOCH":"2026-03-15T07:29:02.380704","MEAN_MOTION":13.7322824,"ECCENTRICITY":0.00317004,"INCLINATION":82.93,"RA_OF_ASC_NODE":275.6302,"ARG_OF_PERICENTER":10.7472,"MEAN_ANOMALY":162.0673,"EPHEMERIS_TYPE":0,"CLASSIFICATION_TYPE":"U","NORAD_CAT_ID":25590,"ELEMENT_SET_NO":999,"REV_AT_EPOCH":36381,"BSTAR":7.2532735e-5,"MEAN_MOTION_DOT":8.2e-7,"MEAN_MOTION_DDOT":0},{"OBJECT_NAME":"COSMOS 2378","OBJECT_ID":"2001-023A","EPOCH":"2026-03-15T03:37:17.892192","MEAN_MOTION":13.74151677,"ECCENTRICITY":0.00320231,"INCLINATION":82.9243,"RA_OF_ASC_NODE":291.2178,"ARG_OF_PERICENTER":311.3941,"MEAN_ANOMALY":165.877,"EPHEMERIS_TYPE":0,"CLASSIFICATION_TYPE":"U","NORAD_CAT_ID":26818,"ELEMENT_SET_NO":999,"REV_AT_EPOCH":24192,"BSTAR":6.854587e-5,"MEAN_MOTION_DOT":7.9e-7,"MEAN_MOTION_DDOT":0},{"OBJECT_NAME":"COSMOS 2389","OBJECT_ID":"2002-026A","EPOCH":"2026-03-15T04:44:55.783968","MEAN_MOTION":13.75164992,"ECCENTRICITY":0.00468213,"INCLINATION":82.948,"RA_OF_ASC_NODE":238.5361,"ARG_OF_PERICENTER":160.4544,"MEAN_ANOMALY":12.6918,"EPHEMERIS_TYPE":0,"CLASSIFICATION_TYPE":"U","NORAD_CAT_ID":27436,"ELEMENT_SET_NO":999,"REV_AT_EPOCH":19419,"BSTAR":4.7567468e-5,"MEAN_MOTION_DOT":6.1e-7,"MEAN_MOTION_DDOT":0},{"OBJECT_NAME":"COSMOS 2398","OBJECT_ID":"2003-023A","EPOCH":"2026-03-15T07:09:53.957088","MEAN_MOTION":13.72395997,"ECCENTRICITY":0.00307805,"INCLINATION":82.9505,"RA_OF_ASC_NODE":204.4862,"ARG_OF_PERICENTER":213.6758,"MEAN_ANOMALY":208.8092,"EPHEMERIS_TYPE":0,"CLASSIFICATION_TYPE":"U","NORAD_CAT_ID":27818,"ELEMENT_SET_NO":999,"REV_AT_EPOCH":14086,"BSTAR":4.6149316e-5,"MEAN_MOTION_DOT":5.7e-7,"MEAN_MOTION_DDOT":0},{"OBJECT_NAME":"COSMOS 2407","OBJECT_ID":"2004-028A","EPOCH":"2026-03-15T06:55:05.034144","MEAN_MOTION":13.76325747,"ECCENTRICITY":0.00400025,"INCLINATION":82.9623,"RA_OF_ASC_NODE":144.3818,"ARG_OF_PERICENTER":153.2805,"MEAN_ANOMALY":281.2256,"EPHEMERIS_TYPE":0,"CLASSIFICATION_TYPE":"U","NORAD_CAT_ID":28380,"ELEMENT_SET_NO":999,"REV_AT_EPOCH":8696,"BSTAR":5.5532789e-5,"MEAN_MOTION_DOT":7.0e-7,"MEAN_MOTION_DDOT":0},{"OBJECT_NAME":"COSMOS 2414","OBJECT_ID":"2005-002A","EPOCH":"2026-03-15T05:47:26.554848","MEAN_MOTION":13.87916523,"ECCENTRICITY":0.00389011,"INCLINATION":82.947,"RA_OF_ASC_NODE":114.7181,"ARG_OF_PERICENTER":236.0527,"MEAN_ANOMALY":123.6937,"EPHEMERIS_TYPE":0,"CLASSIFICATION_TYPE":"U","NORAD_CAT_ID":28521,"ELEMENT_SET_NO":999,"REV_AT_EPOCH":7078,"BSTAR":7.9054968e-5,"MEAN_MOTION_DOT":1.1e-6,"MEAN_MOTION_DDOT":0},{"OBJECT_NAME":"COSMOS 2429","OBJECT_ID":"2007-038A","EPOCH":"2026-03-15T06:30:45.408960","MEAN_MOTION":13.75158868,"ECCENTRICITY":0.0039301,"INCLINATION":82.9763,"RA_OF_ASC_NODE":275.1051,"ARG_OF_PERICENTER":136.3179,"MEAN_ANOMALY":224.1099,"EPHEMERIS_TYPE":0,"CLASSIFICATION_TYPE":"U","NORAD_CAT_ID":32052,"ELEMENT_SET_NO":999,"REV_AT_EPOCH":92874,"BSTAR":7.0247875e-5,"MEAN_MOTION_DOT":8.3e-7,"MEAN_MOTION_DDOT":0},{"OBJECT_NAME":"COSMOS 2454","OBJECT_ID":"2009-039A","EPOCH":"2026-03-15T07:33:04.171104","MEAN_MOTION":13.8994194,"ECCENTRICITY":0.00195838,"INCLINATION":82.952,"RA_OF_ASC_NODE":98.4651,"ARG_OF_PERICENTER":163.5065,"MEAN_ANOMALY":207.0216,"EPHEMERIS_TYPE":0,"CLASSIFICATION_TYPE":"U","NORAD_CAT_ID":35635,"ELEMENT_SET_NO":999,"REV_AT_EPOCH":84436,"BSTAR":5.9503476e-5,"MEAN_MOTION_DOT":8.9e-7,"MEAN_MOTION_DDOT":0},{"OBJECT_NAME":"COSMOS 2463","OBJECT_ID":"2010-017A","EPOCH":"2026-03-15T04:10:29.150400","MEAN_MOTION":13.71658529,"ECCENTRICITY":0.0036936,"INCLINATION":82.9622,"RA_OF_ASC_NODE":318.803,"ARG_OF_PERICENTER":32.726,"MEAN_ANOMALY":79.0097,"EPHEMERIS_TYPE":0,"CLASSIFICATION_TYPE":"U","NORAD_CAT_ID":36519,"ELEMENT_SET_NO":999,"REV_AT_EPOCH":79504,"BSTAR":5.5250069e-5,"MEAN_MOTION_DOT":6.5e-7,"MEAN_MOTION_DDOT":0}]
